QIANFAN-17              
1 60395U 24140S   25294.96262101  .00000059  00000+0  72077-4 0  9993
2 60395  88.9748 304.7990 0014967   3.6480 356.4777 13.50970256 61148
QIANFAN-18              
1 60396U 24140T   25295.01609227  .00000048  00000+0  55838-4 0  9999
2 60396  88.9740 304.3307 0013672 346.2977  13.7801 13.50975277 60540
QIANFAN-19              
1 61552U 24185A   25294.93491394  .00000879  00000+0  45377-3 0  9995
2 61552  88.9776  83.8719 0008992 107.4988 252.7182 14.14211278 62340
QIANFAN-20              
1 61553U 24185B   25294.98016431  .00000849  00000+0  48489-3 0  9990
2 61553  88.9774  84.1384 0007004 137.5192 222.6535 14.08761445 62207
QIANFAN-21              
1 61554U 24185C   25294.97965800  .00001140  00000+0  50476-3 0  9997
2 61554  88.9694  83.0363 0011289 161.5918 198.5684 14.22495816 62610
QIANFAN-22              
1 61555U 24185D   25294.96493191  .00000247  00000+0  20260-3 0  9991
2 61555  88.9758  84.9138 0007813 141.4738 218.6992 13.86274706 61760
QIANFAN-23              
1 61556U 24185E   25294.98333220  .00001115  00000+0  55605-3 0  9996
2 61556  88.9771  83.7002 0009705 117.1725 243.0454 14.16209223 62426
QIANFAN-24              
1 61557U 24185F   25294.95582154  .00001235  00000+0  53484-3 0  9992
2 61557  88.9751  83.1931 0011654 104.8952 255.3531 14.23704410 62654
